SL-3 R/B                
1 13403U 82079B   26038.27859212  .00007463  00000+0  30141-3 0  9993
2 13403  81.1441 228.9759 0024107 269.5007  90.3463 15.24356036373066
SL-14 R/B               
1 13553U 82092B   26037.89544965  .00000787  00000+0  85634-4 0  9997
2 13553  82.5701 170.1931 0021431  46.5174  74.8243 14.86631802324356
SL-3 R/B                
1 13819U 83010B   26038.07750344  .00017750  00000+0  36985-3 0  9996
2 13819  81.1023  39.7479 0017844 148.4993 211.7323 15.45275230353217
SL-3 R/B                
1 14208U 83075B   26038.23856306  .00015666  00000+0  42291-3 0  9994
2 14208  97.6134  41.6867 0021315 344.2602  15.7976 15.37630492325478
COSMOS 1536             
1 14699U 84013A   26038.24648360  .00008093  00000+0  33760-3 0  9998
2 14699  82.5470 138.0954 0015011  34.5567 325.6642 15.23420939267983
SL-14 R/B               
1 14820U 84027B   26038.12163893  .00000593  00000+0  64904-4 0  9991
2 14820  82.5401 273.6882 0019499  75.9170 284.4212 14.85946634243095
SL-8 R/B                
1 15483U 85006B   26038.19142338  .00000351  00000+0  12498-3 0  9995
2 15483  74.0473 317.2671 0019556 240.9197 229.2515 14.37768033149645
SL-12 R/B(2)            
1 15772U 85042D   26038.30595148  .00000171  00000+0  98450-4 0  9993
2 15772  71.1087 151.9196 0035017 176.7482 250.6581 14.21973670110077
SL-14 R/B               
1 15945U 85069B   26038.11567080  .00000683  00000+0  74504-4 0  9999
2 15945  82.5240  53.6891 0017349 296.0393  63.9037 14.86397080168295
SL-16 R/B               
1 16182U 85097B   26037.92734727  .00000002  00000+0  24995-4 0  9990
2 16182  71.0015 205.3130 0009540 295.7746 178.2537 14.16596309 82878
SL-14 R/B               
1 16496U 86006B   26038.16806525  .00001001  00000+0  10365-3 0  9997
2 16496  82.5270 288.4650 0077068  15.0297 345.3184 14.86773364144676
COSMOS 1743             
1 16719U 86034A   26038.31525837  .00041131  00000+0  58103-3 0  9997
2 16719  82.5328 105.6522 0005144  56.2227 303.9517 15.56359838175524
