CCSDS_OMM_VERS = 2.0
CREATION_DATE  = 
ORIGINATOR     = 

OBJECT_NAME    = SL-3 R/B
OBJECT_ID      = 1982-079B
CENTER_NAME    = EARTH
REF_FRAME      = TEME
TIME_SYSTEM    = UTC
MEAN_ELEMENT_THEORY = SGP/SGP4

EPOCH          = 2026-02-07T06:41:10.359168
MEAN_MOTION    = 15.24356036
ECCENTRICITY   = .00241076
INCLINATION    = 81.1441
RA_OF_ASC_NODE = 228.9759
ARG_OF_PERICENTER = 269.5007
MEAN_ANOMALY   = 90.3463

EPHEMERIS_TYPE = 0
CLASSIFICATION_TYPE = U
NORAD_CAT_ID   = 13403
ELEMENT_SET_NO = 999
REV_AT_EPOCH   = 37306
BSTAR          = .30141418E-3
MEAN_MOTION_DOT = .7463E-4
MEAN_MOTION_DDOT = 0

CCSDS_OMM_VERS = 2.0
CREATION_DATE  = 
ORIGINATOR     = 

OBJECT_NAME    = SL-14 R/B
OBJECT_ID      = 1982-092B
CENTER_NAME    = EARTH
REF_FRAME      = TEME
TIME_SYSTEM    = UTC
MEAN_ELEMENT_THEORY = SGP/SGP4

EPOCH          = 2026-02-06T21:29:26.849760
MEAN_MOTION    = 14.86631802
ECCENTRICITY   = .0021431
INCLINATION    = 82.5701
RA_OF_ASC_NODE = 170.1931
ARG_OF_PERICENTER = 46.5174
MEAN_ANOMALY   = 74.8243

EPHEMERIS_TYPE = 0
CLASSIFICATION_TYPE = U
NORAD_CAT_ID   = 13553
ELEMENT_SET_NO = 999
REV_AT_EPOCH   = 32435
BSTAR          = .85634E-4
MEAN_MOTION_DOT = .787E-5
MEAN_MOTION_DDOT = 0

CCSDS_OMM_VERS = 2.0
CREATION_DATE  = 
ORIGINATOR     = 

OBJECT_NAME    = SL-3 R/B
OBJECT_ID      = 1983-010B
CENTER_NAME    = EARTH
REF_FRAME      = TEME
TIME_SYSTEM    = UTC
MEAN_ELEMENT_THEORY = SGP/SGP4

EPOCH          = 2026-02-07T01:51:36.297216
MEAN_MOTION    = 15.45275230
ECCENTRICITY   = .0017844
INCLINATION    = 81.1023
RA_OF_ASC_NODE = 39.7479
ARG_OF_PERICENTER = 148.4993
MEAN_ANOMALY   = 211.7323

EPHEMERIS_TYPE = 0
CLASSIFICATION_TYPE = U
NORAD_CAT_ID   = 13819
ELEMENT_SET_NO = 999
REV_AT_EPOCH   = 35321
BSTAR          = .36984795E-3
MEAN_MOTION_DOT = .1775E-3
MEAN_MOTION_DDOT = 0

CCSDS_OMM_VERS = 2.0
CREATION_DATE  = 
ORIGINATOR     = 

OBJECT_NAME    = SL-3 R/B
OBJECT_ID      = 1983-075B
CENTER_NAME    = EARTH
REF_FRAME      = TEME
TIME_SYSTEM    = UTC
MEAN_ELEMENT_THEORY = SGP/SGP4

EPOCH          = 2026-02-07T05:43:31.848384
MEAN_MOTION    = 15.37630492
ECCENTRICITY   = .0021315
INCLINATION    = 97.6134
RA_OF_ASC_NODE = 41.6867
ARG_OF_PERICENTER = 344.2602
MEAN_ANOMALY   = 15.7976

EPHEMERIS_TYPE = 0
CLASSIFICATION_TYPE = U
NORAD_CAT_ID   = 14208
ELEMENT_SET_NO = 999
REV_AT_EPOCH   = 32547
BSTAR          = .42291056E-3
MEAN_MOTION_DOT = .15666E-3
MEAN_MOTION_DDOT = 0

CCSDS_OMM_VERS = 2.0
CREATION_DATE  = 
ORIGINATOR     = 

OBJECT_NAME    = COSMOS 1536
OBJECT_ID      = 1984-013A
CENTER_NAME    = EARTH
REF_FRAME      = TEME
TIME_SYSTEM    = UTC
MEAN_ELEMENT_THEORY = SGP/SGP4

EPOCH          = 2026-02-07T05:54:56.183040
MEAN_MOTION    = 15.23420939
ECCENTRICITY   = .00150116
INCLINATION    = 82.5470
RA_OF_ASC_NODE = 138.0954
ARG_OF_PERICENTER = 34.5567
MEAN_ANOMALY   = 325.6642

EPHEMERIS_TYPE = 0
CLASSIFICATION_TYPE = U
NORAD_CAT_ID   = 14699
ELEMENT_SET_NO = 999
REV_AT_EPOCH   = 26798
BSTAR          = .33760086E-3
MEAN_MOTION_DOT = .8093E-4
MEAN_MOTION_DDOT = 0

CCSDS_OMM_VERS = 2.0
CREATION_DATE  = 
ORIGINATOR     = 

OBJECT_NAME    = SL-14 R/B
OBJECT_ID      = 1984-027B
CENTER_NAME    = EARTH
REF_FRAME      = TEME
TIME_SYSTEM    = UTC
MEAN_ELEMENT_THEORY = SGP/SGP4

EPOCH          = 2026-02-07T02:55:09.603552
MEAN_MOTION    = 14.85946634
ECCENTRICITY   = .00194994
INCLINATION    = 82.5401
RA_OF_ASC_NODE = 273.6882
ARG_OF_PERICENTER = 75.9170
MEAN_ANOMALY   = 284.4212

EPHEMERIS_TYPE = 0
CLASSIFICATION_TYPE = U
NORAD_CAT_ID   = 14820
ELEMENT_SET_NO = 999
REV_AT_EPOCH   = 24309
BSTAR          = .6490384E-4
MEAN_MOTION_DOT = .593E-5
MEAN_MOTION_DDOT = 0

CCSDS_OMM_VERS = 2.0
CREATION_DATE  = 
ORIGINATOR     = 

OBJECT_NAME    = SL-8 R/B
OBJECT_ID      = 1985-006B
CENTER_NAME    = EARTH
REF_FRAME      = TEME
TIME_SYSTEM    = UTC
MEAN_ELEMENT_THEORY = SGP/SGP4

EPOCH          = 2026-02-07T04:35:38.980032
MEAN_MOTION    = 14.37768033
ECCENTRICITY   = .00195563
INCLINATION    = 74.0473
RA_OF_ASC_NODE = 317.2671
ARG_OF_PERICENTER = 240.9197
MEAN_ANOMALY   = 229.2515

EPHEMERIS_TYPE = 0
CLASSIFICATION_TYPE = U
NORAD_CAT_ID   = 15483
ELEMENT_SET_NO = 999
REV_AT_EPOCH   = 14964
BSTAR          = .12497528E-3
MEAN_MOTION_DOT = .351E-5
MEAN_MOTION_DDOT = 0

CCSDS_OMM_VERS = 2.0
CREATION_DATE  = 
ORIGINATOR     = 

OBJECT_NAME    = SL-12 R/B(2)
OBJECT_ID      = 1985-042D
CENTER_NAME    = EARTH
REF_FRAME      = TEME
TIME_SYSTEM    = UTC
MEAN_ELEMENT_THEORY = SGP/SGP4

EPOCH          = 2026-02-07T07:20:34.207872
MEAN_MOTION    = 14.21973670
ECCENTRICITY   = .0035017
INCLINATION    = 71.1087
RA_OF_ASC_NODE = 151.9196
ARG_OF_PERICENTER = 176.7482
MEAN_ANOMALY   = 250.6581

EPHEMERIS_TYPE = 0
CLASSIFICATION_TYPE = U
NORAD_CAT_ID   = 15772
ELEMENT_SET_NO = 999
REV_AT_EPOCH   = 11007
BSTAR          = .98450084E-4
MEAN_MOTION_DOT = .171E-5
MEAN_MOTION_DDOT = 0

CCSDS_OMM_VERS = 2.0
CREATION_DATE  = 
ORIGINATOR     = 

OBJECT_NAME    = SL-14 R/B
OBJECT_ID      = 1985-069B
CENTER_NAME    = EARTH
REF_FRAME      = TEME
TIME_SYSTEM    = UTC
MEAN_ELEMENT_THEORY = SGP/SGP4

EPOCH          = 2026-02-07T02:46:33.957120
MEAN_MOTION    = 14.86397080
ECCENTRICITY   = .0017349
INCLINATION    = 82.5240
RA_OF_ASC_NODE = 53.6891
ARG_OF_PERICENTER = 296.0393
MEAN_ANOMALY   = 63.9037

EPHEMERIS_TYPE = 0
CLASSIFICATION_TYPE = U
NORAD_CAT_ID   = 15945
ELEMENT_SET_NO = 999
REV_AT_EPOCH   = 16829
BSTAR          = .74503765E-4
MEAN_MOTION_DOT = .683E-5
MEAN_MOTION_DDOT = 0

CCSDS_OMM_VERS = 2.0
CREATION_DATE  = 
ORIGINATOR     = 

OBJECT_NAME    = SL-16 R/B
OBJECT_ID      = 1985-097B
CENTER_NAME    = EARTH
REF_FRAME      = TEME
TIME_SYSTEM    = UTC
MEAN_ELEMENT_THEORY = SGP/SGP4

EPOCH          = 2026-02-06T22:15:22.804128
MEAN_MOTION    = 14.16596309
ECCENTRICITY   = .000954
INCLINATION    = 71.0015
RA_OF_ASC_NODE = 205.3130
ARG_OF_PERICENTER = 295.7746
MEAN_ANOMALY   = 178.2537

EPHEMERIS_TYPE = 0
CLASSIFICATION_TYPE = U
NORAD_CAT_ID   = 16182
ELEMENT_SET_NO = 999
REV_AT_EPOCH   = 8287
BSTAR          = .24995E-4
MEAN_MOTION_DOT = .2E-7
MEAN_MOTION_DDOT = 0

CCSDS_OMM_VERS = 2.0
CREATION_DATE  = 
ORIGINATOR     = 

OBJECT_NAME    = SL-14 R/B
OBJECT_ID      = 1986-006B
CENTER_NAME    = EARTH
REF_FRAME      = TEME
TIME_SYSTEM    = UTC
MEAN_ELEMENT_THEORY = SGP/SGP4

EPOCH          = 2026-02-07T04:02:00.837600
MEAN_MOTION    = 14.86773364
ECCENTRICITY   = .00770681
INCLINATION    = 82.5270
RA_OF_ASC_NODE = 288.4650
ARG_OF_PERICENTER = 15.0297
MEAN_ANOMALY   = 345.3184

EPHEMERIS_TYPE = 0
CLASSIFICATION_TYPE = U
NORAD_CAT_ID   = 16496
ELEMENT_SET_NO = 999
REV_AT_EPOCH   = 14467
BSTAR          = .10365157E-3
MEAN_MOTION_DOT = .1001E-4
MEAN_MOTION_DDOT = 0

CCSDS_OMM_VERS = 2.0
CREATION_DATE  = 
ORIGINATOR     = 

OBJECT_NAME    = COSMOS 1743
OBJECT_ID      = 1986-034A
CENTER_NAME    = EARTH
REF_FRAME      = TEME
TIME_SYSTEM    = UTC
MEAN_ELEMENT_THEORY = SGP/SGP4

EPOCH          = 2026-02-07T07:33:58.323168
MEAN_MOTION    = 15.56359838
ECCENTRICITY   = .0005144
INCLINATION    = 82.5328
RA_OF_ASC_NODE = 105.6522
ARG_OF_PERICENTER = 56.2227
MEAN_ANOMALY   = 303.9517

EPHEMERIS_TYPE = 0
CLASSIFICATION_TYPE = U
NORAD_CAT_ID   = 16719
ELEMENT_SET_NO = 999
REV_AT_EPOCH   = 17552
BSTAR          = .58102861E-3
MEAN_MOTION_DOT = .41131E-3
MEAN_MOTION_DDOT = 0

